$$SOE
2460147.500000000, A.D. 2023-Jul-22 00:00:00.0000, -5.815844429243971E+08, -1.586897819946047E+08, -8.294310730740398E+07,
2460154.500000000, A.D. 2023-Jul-29 00:00:00.0000, -5.782923755823338E+08, -1.640874732630718E+08, -8.273583763724813E+07,
2460161.500000000, A.D. 2023-Aug-05 00:00:00.0000, -5.748747103818688E+08, -1.694495243797440E+08, -8.251058686999387E+07,
2460168.500000000, A.D. 2023-Aug-12 00:00:00.0000, -5.713310695276318E+08, -1.747744408456424E+08, -8.226724265011805E+07,
2460175.500000000, A.D. 2023-Aug-19 00:00:00.0000, -5.676610581599776E+08, -1.800606981767359E+08, -8.200568918588617E+07,
2460182.500000000, A.D. 2023-Aug-26 00:00:00.0000, -5.638642642734256E+08, -1.853067401200557E+08, -8.172580716231662E+07,
2460189.500000000, A.D. 2023-Sep-02 00:00:00.0000, -5.599402586618791E+08, -1.905109768655534E+08, -8.142747365618184E+07,
2460196.500000000, A.D. 2023-Sep-09 00:00:00.0000, -5.558885948552642E+08, -1.956717832895606E+08, -8.111056205966450E+07,
2460203.500000000, A.D. 2023-Sep-16 00:00:00.0000, -5.517088088805799E+08, -2.007874972821513E+08, -8.077494203273544E+07,
2460210.500000000, A.D. 2023-Sep-23 00:00:00.0000, -5.474004184324920E+08, -2.058564178654932E+08, -8.042047949886639E+07,
2460217.500000000, A.D. 2023-Sep-30 00:00:00.0000, -5.429629217946205E+08, -2.108768019058862E+08, -8.004703655542251E+07,
2460224.500000000, A.D. 2023-Oct-07 00:00:00.0000, -5.383957988670061E+08, -2.158468599554941E+08, -7.965447112701550E+07,
2460231.500000000, A.D. 2023-Oct-14 00:00:00.0000, -5.336985132624214E+08, -2.207647545299078E+08, -7.924263672793241E+07,
2460238.500000000, A.D. 2023-Oct-21 00:00:00.0000, -5.288705122461388E+08, -2.256285992107848E+08, -7.881138249875216E+07,
2460245.500000000, A.D. 2023-Oct-28 00:00:00.0000, -5.239112259463190E+08, -2.304364563043515E+08, -7.836055320147267E+07,
2460252.500000000, A.D. 2023-Nov-04 00:00:00.0000, -5.188200670877717E+08, -2.351863338167302E+08, -7.788998912108110E+07,
2460259.500000000, A.D. 2023-Nov-11 00:00:00.0000, -5.135964310749473E+08, -2.398761823362394E+08, -7.739952593867795E+07,
2460266.500000000, A.D. 2023-Nov-18 00:00:00.0000, -5.082396962089167E+08, -2.445038918765053E+08, -7.688899460147978E+07,
2460273.500000000, A.D. 2023-Nov-25 00:00:00.0000, -5.027492239703949E+08, -2.490672886463529E+08, -7.635822119452050E+07,
2460280.500000000, A.D. 2023-Dec-02 00:00:00.0000, -4.971243593460203E+08, -2.535641317451973E+08, -7.580702681758235E+07,
2460287.500000000, A.D. 2023-Dec-09 00:00:00.0000, -4.913644311260698E+08, -2.579921098293668E+08, -7.523522747943872E+07,
2460294.500000000, A.D. 2023-Dec-16 00:00:00.0000, -4.854687518928364E+08, -2.623488377222255E+08, -7.464263403501756E+07,
2460301.500000000, A.D. 2023-Dec-23 00:00:00.0000, -4.794366173588024E+08, -2.666318522647915E+08, -7.402905214165367E+07,
2460308.500000000, A.D. 2023-Dec-30 00:00:00.0000, -4.732673064031624E+08, -2.708386063403134E+08, -7.339428202623323E+07,
2460315.500000000, A.D. 2024-Jan-06 00:00:00.0000, -4.669600835885662E+08, -2.749664634150223E+08, -7.273811809425724E+07,
2460322.500000000, A.D. 2024-Jan-13 00:00:00.0000, -4.605142009965992E+08, -2.790126943819993E+08, -7.206034882044439E+07,
2460329.500000000, A.D. 2024-Jan-20 00:00:00.0000, -4.539288981709470E+08, -2.829744736010624E+08, -7.136075678185204E+07,
2460336.500000000, A.D. 2024-Jan-27 00:00:00.0000, -4.472034022097699E+08, -2.868488734577128E+08, -7.063911859473699E+07,
2460343.500000000, A.D. 2024-Feb-03 00:00:00.0000, -4.403369284496043E+08, -2.906328583637434E+08, -6.989520479417519E+07,
2460350.500000000, A.D. 2024-Feb-10 00:00:00.0000, -4.333286814799340E+08, -2.943232784634440E+08, -6.912877970696698E+07,
2460357.500000000, A.D. 2024-Feb-17 00:00:00.0000, -4.261778563696085E+08, -2.979168630083143E+08, -6.833960133169506E+07,
2460364.500000000, A.D. 2024-Feb-24 00:00:00.0000, -4.188836400925152E+08, -3.014102133534269E+08, -6.752742123014131E+07,
2460371.500000000, A.D. 2024-Mar-02 00:00:00.0000, -4.114452131497720E+08, -3.047997955724587E+08, -6.669198443768759E+07,
2460378.500000000, A.D. 2024-Mar-09 00:00:00.0000, -4.038617512795572E+08, -3.080819327151419E+08, -6.583302941300258E+07,
2460385.500000000, A.D. 2024-Mar-16 00:00:00.0000, -3.961324268928874E+08, -3.112527964670632E+08, -6.495028804979780E+07,
2460392.500000000, A.D. 2024-Mar-23 00:00:00.0000, -3.882564103767258E+08, -3.143083970559825E+08, -6.404348565348461E+07,
2460399.500000000, A.D. 2024-Mar-30 00:00:00.0000, -3.802328735481285E+08, -3.172445713806022E+08, -6.311234068277191E+07,
2460406.500000000, A.D. 2024-Apr-06 00:00:00.0000, -3.720609950522404E+08, -3.200569726748437E+08, -6.215656455914229E+07,
2460413.500000000, A.D. 2024-Apr-13 00:00:00.0000, -3.637399642100648E+08, -3.227410608121272E+08, -6.117586180674775E+07,
2460420.500000000, A.D. 2024-Apr-20 00:00:00.0000, -3.552689843334725E+08, -3.252920905075806E+08, -6.016993022242382E+07,
2460427.500000000, A.D. 2024-Apr-27 00:00:00.0000, -3.466472770982482E+08, -3.277050979075800E+08, -5.913846098899810E+07,
2460434.500000000, A.D. 2024-May-04 00:00:00.0000, -3.378740879712735E+08, -3.299748861918604E+08, -5.808113880498886E+07,
2460441.500000000, A.D. 2024-May-11 00:00:00.0000, -3.289486925500102E+08, -3.320960102055792E+08, -5.699764206987290E+07,
2460448.500000000, A.D. 2024-May-18 00:00:00.0000, -3.198704038436731E+08, -3.340627600084500E+08, -5.588764314136373E+07,
2460455.500000000, A.D. 2024-May-25 00:00:00.0000, -3.106385805999546E+08, -3.358691432492954E+08, -5.475080868013072E+07,
2460462.500000000, A.D. 2024-Jun-01 00:00:00.0000, -3.012526367658705E+08, -3.375088663167644E+08, -5.358680010696886E+07,
2460469.500000000, A.D. 2024-Jun-08 00:00:00.0000, -2.917120520080196E+08, -3.389753141743459E+08, -5.239527421444303E+07,
2460476.500000000, A.D. 2024-Jun-15 00:00:00.0000, -2.820163830916024E+08, -3.402615282111959E+08, -5.117588394588654E+07,
2460483.500000000, A.D. 2024-Jun-22 00:00:00.0000, -2.721652773537303E+08, -3.413601808010865E+08, -4.992827917800473E+07,
2460490.500000000, A.D. 2024-Jun-29 00:00:00.0000, -2.621584906591465E+08, -3.422635482489806E+08, -4.865210749024175E+07,
2460497.500000000, A.D. 2024-Jul-06 00:00:00.0000, -2.519959075032525E+08, -3.429634844481632E+08, -4.734701540006082E+07,
2460504.500000000, A.D. 2024-Jul-13 00:00:00.0000, -2.416775616748122E+08, -3.434513922689945E+08, -4.601265005321021E+07,
2460511.500000000, A.D. 2024-Jul-20 00:00:00.0000, -2.312036598846822E+08, -3.437181913689507E+08, -4.464866114126989E+07,
2460518.500000000, A.D. 2024-Jul-27 00:00:00.0000, -2.205746095056553E+08, -3.437542832177961E+08, -4.325470312179431E+07,
2460525.500000000, A.D. 2024-Aug-03 00:00:00.0000, -2.097910507201017E+08, -3.435495135478565E+08, -4.183043786457956E+07,
2460532.500000000, A.D. 2024-Aug-10 00:00:00.0000, -1.988538935743518E+08, -3.430931320757279E+08, -4.037553782058670E+07,
2460539.500000000, A.D. 2024-Aug-17 00:00:00.0000, -1.877643606698694E+08, -3.423737493304394E+08, -3.888968981274372E+07,
2460546.500000000, A.D. 2024-Aug-24 00:00:00.0000, -1.765240363734518E+08, -3.413792904919351E+08, -3.737259956816466E+07,
2460553.500000000, A.D. 2024-Aug-31 00:00:00.0000, -1.651349234960682E+08, -3.400969462217754E+08, -3.582399714448079E+07,
2460560.500000000, A.D. 2024-Sep-07 00:00:00.0000, -1.535995083215104E+08, -3.385131203384737E+08, -3.424364343667167E+07,
2460567.500000000, A.D. 2024-Sep-14 00:00:00.0000, -1.419208353583712E+08, -3.366133734045436E+08, -3.263133788499913E+07,
2460574.500000000, A.D. 2024-Sep-21 00:00:00.0000, -1.301025955487402E+08, -3.343823619930699E+08, -3.098692739490925E+07,
2460581.500000000, A.D. 2024-Sep-28 00:00:00.0000, -1.181492304075401E+08, -3.318037772062544E+08, -2.931031696207124E+07,
2460588.500000000, A.D. 2024-Oct-05 00:00:00.0000, -1.060660507322178E+08, -3.288602830203875E+08, -2.760148266538349E+07,
2460595.500000000, A.D. 2024-Oct-12 00:00:00.0000, -9.385937292090207E+07, -3.255334523713865E+08, -2.586048714006470E+07,
2460602.500000000, A.D. 2024-Oct-19 00:00:00.0000, -8.153667774260426E+07, -3.218037025775039E+08, -2.408749785484794E+07,
2460609.500000000, A.D. 2024-Oct-26 00:00:00.0000, -6.910679514662977E+07, -3.176502328042580E+08, -2.228280880352511E+07,
2460616.500000000, A.D. 2024-Nov-02 00:00:00.0000, -5.658011890518517E+07, -3.130509663865079E+08, -2.044686629032212E+07,
2460623.500000000, A.D. 2024-Nov-09 00:00:00.0000, -4.396885554883533E+07, -3.079825016581852E+08, -1.858029956712428E+07,
2460630.500000000, A.D. 2024-Nov-16 00:00:00.0000, -3.128731260247476E+07, -3.024200762837867E+08, -1.668395719339994E+07,
2460637.500000000, A.D. 2024-Nov-23 00:00:00.0000, -1.855223150281764E+07, -2.963375518647045E+08, -1.475895011939043E+07,
2460644.500000000, A.D. 2024-Nov-30 00:00:00.0000, -5.783170632920888E+06, -2.897074278171151E+08, -1.280670262800935E+07,
2460651.500000000, A.D. 2024-Dec-07 00:00:00.0000, 6.997056416276371E+06, -2.825008958995892E+08, -1.082901235537979E+07,
2460658.500000000, A.D. 2024-Dec-14 00:00:00.0000, 1.976188180778187E+07, -2.746879495409569E+08, -8.828120503543645E+06,
2460665.500000000, A.D. 2024-Dec-21 00:00:00.0000, 3.248041801326435E+07, -2.662375689887834E+08, -6.806793390902743E+06,
2460672.500000000, A.D. 2024-Dec-28 00:00:00.0000, 4.511682751552530E+07, -2.571180103121442E+08, -4.768416861507013E+06,
2460679.500000000, A.D. 2025-Jan-04 00:00:00.0000, 5.762963470758540E+07, -2.472972270557855E+08, -2.717104309847206E+06,
2460686.500000000, A.D. 2025-Jan-11 00:00:00.0000, 6.997099028953458E+07, -2.367434606900842E+08, -6.578179988408536E+05,
2460693.500000000, A.D. 2025-Jan-18 00:00:00.0000, 8.208591086325021E+07, -2.254260450715488E+08, 1.403497597232729E+06,
2460700.500000000, A.D. 2025-Jan-25 00:00:00.0000, 9.391153403471449E+07, -2.133164747854497E+08, 3.459773570645854E+06,
2460707.500000000, A.D. 2025-Feb-01 00:00:00.0000, 1.053764517119338E+08, -2.003897883728672E+08, 5.502671546680301E+06,
$$EOE